STARLINK-30485          
1 57920U 23147H   25201.53150409 -.00003296  00000+0 -22907-3 0  9991
2 57920  43.0024 147.6866 0000863 270.7290  89.3453 15.02537448101698
STARLINK-30492          
1 57921U 23147J   25202.19295061  .00000410  00000+0  45386-4 0  9999
2 57921  43.0016 144.0490 0000845 282.9031  77.1717 15.02534577101689
STARLINK-30440          
1 57923U 23147L   25201.25893216 -.00000167  00000+0  27012-5 0  9990
2 57923  43.0024 149.0785 0000928 264.5760  95.4976 15.02534467101654
STARLINK-30487          
1 57924U 23147M   25201.83724956  .00000243  00000+0  33070-4 0  9993
2 57924  43.0026 145.6644 0000673 295.9713  64.1060 15.02536709101744
STARLINK-30452          
1 57925U 23147N   25202.25276743  .00000223  00000+0  31538-4 0  9992
2 57925  43.0012 143.6370 0000853 278.6555  81.4191 15.02534585101754
STARLINK-30468          
1 57926U 23147P   25202.11648499 -.00000181  00000+0  16531-5 0  9990
2 57926  43.0024 144.3374 0000896 266.1876  93.8864 15.02534322101736
STARLINK-30459          
1 57927U 23147Q   25202.23021091  .00002082  00000+0  84857-4 0  9993
2 57927  43.0045  29.2109 0001149 270.9792  89.0928 15.27708169103031
STARLINK-30448          
1 57928U 23147R   25202.17630209 -.00000521  00000+0 -23475-4 0  9991
2 57928  43.0031 143.9229 0000862 278.2731  81.8013 15.02535742101692
STARLINK-30476          
1 57930U 23147T   25201.83698213  .00015830  00000+0  97372-3 0  9998
2 57930  42.9986 128.1435 0005759 160.1176 199.9894 15.09803104101918
STARLINK-30488          
1 57931U 23147U   25201.57466960  .00000080  00000+0  21012-4 0  9992
2 57931  43.0026 147.1473 0000962 271.5146  88.5586 15.02534563101716
STARLINK-30471          
1 57932U 23147V   25202.15632435 -.00000083  00000+0  89175-5 0  9999
2 57932  43.0024 143.7706 0000846 268.8188  91.2557 15.02532898101743
STARLINK-30461          
1 57933U 23147W   25202.16631506 -.00000353  00000+0 -11102-4 0  9994
2 57933  43.0025 143.8494 0000875 285.7981  74.2765 15.02533006101699
STARLINK-30458          
1 57934U 23147X   25201.74299999  .00048167  00000+0  10652-2 0  9994
2 57934  42.9878 103.9721 0031611 201.7977 158.1536 15.42542563102195
STARLINK-30712          
1 57935U 23148A   25201.49548603  .00000230  00000+0  19896-4 0  9997
2 57935  53.1622  22.7204 0001290  86.8748 273.2400 15.30189511102870
STARLINK-30716          
1 57936U 23148B   25201.78627723 -.00000267  00000+0  31039-5 0  9996
2 57936  53.1562  21.6023 0000688  70.7274 289.3801 15.30196621102825
STARLINK-30400          
1 57937U 23148C   25202.21710781 -.00000188  00000+0  57937-5 0  9990
2 57937  53.1639  19.3643 0001173  90.6958 269.4178 15.30191611102902
STARLINK-30710          
1 57938U 23148D   25201.74734260  .00000122  00000+0  16243-4 0  9997
2 57938  53.1617  11.5721 0001092  75.0501 285.0620 15.30195888103043
STARLINK-30714          
1 57939U 23148E   25201.92323772 -.00003237  00000+0 -97187-4 0  9998
2 57939  53.1616  21.0210 0001217  86.9365 273.1775 15.30208481102930
STARLINK-30711          
1 57940U 23148F   25201.78944678 -.00000204  00000+0  52415-5 0  9994
2 57940  53.1645  21.6269 0001154  67.9969 292.1155 15.30194322102833
STARLINK-30715          
1 57941U 23148G   25202.16712266 -.00003749  00000+0 -83883-4 0  9994
2 57941  53.1584   9.7828 0000513  89.3547 270.7516 15.39592397103031
STARLINK-30455          
1 57942U 23148H   25202.18765833 -.00000679  00000+0 -10806-4 0  9999
2 57942  53.1615  19.7921 0000894  90.3189 269.7914 15.30191705102890
STARLINK-30456          
1 57943U 23148J   25201.78312954  .00005391  00000+0  19419-3 0  9999
2 57943  53.1704  21.6624 0002713 100.3419 259.7888 15.30174304102910
STARLINK-30708          
1 57944U 23148K   25202.48154043 -.00000258  00000+0  34078-5 0  9999
2 57944  53.1606  18.1990 0001306  95.4163 264.6987 15.30188092102998
STARLINK-30705          
1 57945U 23148L   25202.23082919  .00000756  00000+0  37645-4 0  9999
2 57945  53.1656  19.4866 0000928  70.5877 289.5224 15.30198373102897
STARLINK-30704          
1 57946U 23148M   25201.99084815 -.00009111  00000+0 -29570-3 0  9992
2 57946  53.1599  97.6717 0001401  78.0929 282.0229 15.30217724101765
STARLINK-30706          
1 57947U 23148N   25201.77995651  .00000624  00000+0  33258-4 0  9995
2 57947  53.1707  21.6379 0003582  97.2645 262.8764 15.30195200102910
STARLINK-30709          
1 57948U 23148P   25202.58334491  .00097783  00000+0  15992-2 0  9990
2 57948  53.1493   9.0740 0003200 162.6382 349.2185 15.51756239103070
STARLINK-30707          
1 57949U 23148Q   25201.77678913  .00000226  00000+0  19768-4 0  9994
2 57949  53.1653  21.6222 0002213  92.0321 268.0933 15.30197909102917
STARLINK-30701          
1 57950U 23148R   25201.77045823  .00000592  00000+0  32111-4 0  9997
2 57950  53.1602  21.5643 0000923  79.9255 280.1850 15.30193434102917
STARLINK-30399          
1 57951U 23148S   25202.35406332 -.00004679  00000+0 -14590-3 0  9991
2 57951  53.1610  18.8053 0000973  78.9815 281.1295 15.30212770102927
