OBJECT_NAME,OBJECT_ID,EPOCH,MEAN_MOTION,ECCENTRICITY,INCLINATION,RA_OF_ASC_NODE,ARG_OF_PERICENTER,MEAN_ANOMALY,EPHEMERIS_TYPE,CLASSIFICATION_TYPE,NORAD_CAT_ID,ELEMENT_SET_NO,REV_AT_EPOCH,BSTAR,MEAN_MOTION_DOT,MEAN_MOTION_DDOT
STARLINK-30485,2023-147H,2025-07-20T12:45:21.953376,15.02537448,.0000863,43.0024,147.6866,270.7290,89.3453,0,U,57920,999,10169,-.22907E-3,-.3296E-4,0
STARLINK-30492,2023-147J,2025-07-21T04:37:50.932704,15.02534577,.0000845,43.0016,144.0490,282.9031,77.1717,0,U,57921,999,10168,.45386E-4,.41E-5,0
STARLINK-30440,2023-147L,2025-07-20T06:12:51.738624,15.02534467,.0000928,43.0024,149.0785,264.5760,95.4976,0,U,57923,999,10165,.27012E-5,-.167E-5,0
STARLINK-30487,2023-147M,2025-07-20T20:05:38.361984,15.02536709,.0000673,43.0026,145.6644,295.9713,64.1060,0,U,57924,999,10174,.3307E-4,.243E-5,0
STARLINK-30452,2023-147N,2025-07-21T06:03:59.105952,15.02534585,.0000853,43.0012,143.6370,278.6555,81.4191,0,U,57925,999,10175,.31538E-4,.223E-5,0
STARLINK-30468,2023-147P,2025-07-21T02:47:44.303136,15.02534322,.0000896,43.0024,144.3374,266.1876,93.8864,0,U,57926,999,10173,.16531E-5,-.181E-5,0
STARLINK-30459,2023-147Q,2025-07-21T05:31:30.222624,15.27708169,.0001149,43.0045,29.2109,270.9792,89.0928,0,U,57927,999,10303,.84857E-4,.2082E-4,0
STARLINK-30448,2023-147R,2025-07-21T04:13:52.500576,15.02535742,.0000862,43.0031,143.9229,278.2731,81.8013,0,U,57928,999,10169,-.23475E-4,-.521E-5,0
STARLINK-30476,2023-147T,2025-07-20T20:05:15.256032,15.09803104,.0005759,42.9986,128.1435,160.1176,199.9894,0,U,57930,999,10191,.97372E-3,.1583E-3,0
STARLINK-30488,2023-147U,2025-07-20T13:47:31.453440,15.02534563,.0000962,43.0026,147.1473,271.5146,88.5586,0,U,57931,999,10171,.21012E-4,.8E-6,0
STARLINK-30471,2023-147V,2025-07-21T03:45:06.423840,15.02532898,.0000846,43.0024,143.7706,268.8188,91.2557,0,U,57932,999,10174,.89175E-5,-.83E-6,0
STARLINK-30461,2023-147W,2025-07-21T03:59:29.621184,15.02533006,.0000875,43.0025,143.8494,285.7981,74.2765,0,U,57933,999,10169,-.11102E-4,-.353E-5,0
STARLINK-30458,2023-147X,2025-07-20T17:49:55.199136,15.42542563,.0031611,42.9878,103.9721,201.7977,158.1536,0,U,57934,999,10219,.10652E-2,.48167E-3,0
STARLINK-30712,2023-148A,2025-07-20T11:53:29.992992,15.30189511,.000129,53.1622,22.7204,86.8748,273.2400,0,U,57935,999,10287,.19896E-4,.23E-5,0
STARLINK-30716,2023-148B,2025-07-20T18:52:14.352672,15.30196621,.0000688,53.1562,21.6023,70.7274,289.3801,0,U,57936,999,10282,.31039E-5,-.267E-5,0
STARLINK-30400,2023-148C,2025-07-21T05:12:38.114784,15.30191611,.0001173,53.1639,19.3643,90.6958,269.4178,0,U,57937,999,10290,.57937E-5,-.188E-5,0
STARLINK-30710,2023-148D,2025-07-20T17:56:10.400640,15.30195888,.0001092,53.1617,11.5721,75.0501,285.0620,0,U,57938,999,10304,.16243E-4,.122E-5,0
STARLINK-30714,2023-148E,2025-07-20T22:09:27.739008,15.30208481,.0001217,53.1616,21.0210,86.9365,273.1775,0,U,57939,999,10293,-.97187E-4,-.3237E-4,0
STARLINK-30711,2023-148F,2025-07-20T18:56:48.201792,15.30194322,.0001154,53.1645,21.6269,67.9969,292.1155,0,U,57940,999,10283,.52415E-5,-.204E-5,0
STARLINK-30715,2023-148G,2025-07-21T04:00:39.397824,15.39592397,.0000513,53.1584,9.7828,89.3547,270.7516,0,U,57941,999,10303,-.83883E-4,-.3749E-4,0
STARLINK-30455,2023-148H,2025-07-21T04:30:13.679712,15.30191705,.0000894,53.1615,19.7921,90.3189,269.7914,0,U,57942,999,10289,-.10806E-4,-.679E-5,0
STARLINK-30456,2023-148J,2025-07-20T18:47:42.392256,15.30174304,.0002713,53.1704,21.6624,100.3419,259.7888,0,U,57943,999,10291,.19419E-3,.5391E-4,0
STARLINK-30708,2023-148K,2025-07-21T11:33:25.093152,15.30188092,.0001306,53.1606,18.1990,95.4163,264.6987,0,U,57944,999,10299,.34078E-5,-.258E-5,0
STARLINK-30705,2023-148L,2025-07-21T05:32:23.642016,15.30198373,.0000928,53.1656,19.4866,70.5877,289.5224,0,U,57945,999,10289,.37645E-4,.756E-5,0
STARLINK-30704,2023-148M,2025-07-20T23:46:49.280160,15.30217724,.0001401,53.1599,97.6717,78.0929,282.0229,0,U,57946,999,10176,-.2957E-3,-.9111E-4,0
STARLINK-30706,2023-148N,2025-07-20T18:43:08.242464,15.30195200,.0003582,53.1707,21.6379,97.2645,262.8764,0,U,57947,999,10291,.33258E-4,.624E-5,0
STARLINK-30709,2023-148P,2025-07-21T14:00:01.000224,15.51756239,.00032,53.1493,9.0740,162.6382,349.2185,0,U,57948,999,10307,.15992E-2,.97783E-3,0
STARLINK-30707,2023-148Q,2025-07-20T18:38:34.580832,15.30197909,.0002213,53.1653,21.6222,92.0321,268.0933,0,U,57949,999,10291,.19768E-4,.226E-5,0
STARLINK-30701,2023-148R,2025-07-20T18:29:27.591072,15.30193434,.0000923,53.1602,21.5643,79.9255,280.1850,0,U,57950,999,10291,.32111E-4,.592E-5,0
STARLINK-30399,2023-148S,2025-07-21T08:29:51.070848,15.30212770,.0000973,53.1610,18.8053,78.9815,281.1295,0,U,57951,999,10292,-.1459E-3,-.4679E-4,0
